0 RASCOM 1
1 32387U 07063A   13282.48642047  .00000061  00000-0  00000+0 0  9390
2 32387 002.5488 071.4373 0009594 356.5926 003.6679 00.99064257 21590
0 RASCOM 1
1 32387U 07063A   13286.52410883  .00000036  00000-0  00000+0 0  9415
2 32387 002.5573 071.3945 0009408 356.4844 003.8129 00.99065422 21633
0 RASCOM 1
1 32387U 07063A   13289.55221477 -.00000011  00000-0  00000+0 0  9425
2 32387 002.5640 071.3693 0009316 356.3687 003.9047 00.99066629 21663
0 RASCOM 1
1 32387U 07063A   13291.57073725 -.00000055  00000-0  00000+0 0  9430
2 32387 002.5683 071.3486 0009238 356.2592 003.9346 00.99067496 21684
0 RASCOM 1
1 32387U 07063A   13294.59845072 -.00000132  00000-0  00000+0 0  9444
2 32387 002.5746 071.3160 0008994 355.3878 004.6739 00.99068679 21710
